[{"OBJECT_NAME":"ONEWEB-0171","OBJECT_ID":"2021-025AE","EPOCH":"2025-11-21T14:04:49.468224","MEAN_MOTION":13.13468414,"ECCENTRICITY":0.0001925,"INCLINATION":87.8986,"RA_OF_ASC_NODE":1.5059,"ARG_OF_PERICENTER":93.9565,"MEAN_ANOMALY":266.1784,"EPHEMERIS_TYPE":0,"CLASSIFICATION_TYPE":"U","NORAD_CAT_ID":48070,"ELEMENT_SET_NO":999,"REV_AT_EPOCH":22636,"BSTAR":-0.00073451,"MEAN_MOTION_DOT":-2.55e-6,"MEAN_MOTION_DDOT":0},{"OBJECT_NAME":"ONEWEB-0172","OBJECT_ID":"2021-025AF","EPOCH":"2025-11-21T13:35:35.670048","MEAN_MOTION":13.13469606,"ECCENTRICITY":0.0001919,"INCLINATION":87.9008,"RA_OF_ASC_NODE":1.4889,"ARG_OF_PERICENTER":91.9144,"MEAN_ANOMALY":268.2205,"EPHEMERIS_TYPE":0,"CLASSIFICATION_TYPE":"U","NORAD_CAT_ID":48071,"ELEMENT_SET_NO":999,"REV_AT_EPOCH":22725,"BSTAR":0.00065203,"MEAN_MOTION_DOT":2.51e-6,"MEAN_MOTION_DDOT":0},{"OBJECT_NAME":"ONEWEB-0174","OBJECT_ID":"2021-025AG","EPOCH":"2025-11-21T13:08:46.648896","MEAN_MOTION":13.13469451,"ECCENTRICITY":0.0001699,"INCLINATION":87.8995,"RA_OF_ASC_NODE":1.4989,"ARG_OF_PERICENTER":94.2968,"MEAN_ANOMALY":265.8355,"EPHEMERIS_TYPE":0,"CLASSIFICATION_TYPE":"U","NORAD_CAT_ID":48072,"ELEMENT_SET_NO":999,"REV_AT_EPOCH":22657,"BSTAR":0.00078799,"MEAN_MOTION_DOT":3.01e-6,"MEAN_MOTION_DDOT":0},{"OBJECT_NAME":"ONEWEB-0175","OBJECT_ID":"2021-025AH","EPOCH":"2025-11-21T13:52:39.111744","MEAN_MOTION":13.13469082,"ECCENTRICITY":0.0002163,"INCLINATION":87.9005,"RA_OF_ASC_NODE":1.4607,"ARG_OF_PERICENTER":94.0002,"MEAN_ANOMALY":266.1374,"EPHEMERIS_TYPE":0,"CLASSIFICATION_TYPE":"U","NORAD_CAT_ID":48073,"ELEMENT_SET_NO":999,"REV_AT_EPOCH":22623,"BSTAR":-0.0002219,"MEAN_MOTION_DOT":-6.8e-7,"MEAN_MOTION_DDOT":0},{"OBJECT_NAME":"ONEWEB-0177","OBJECT_ID":"2021-025AJ","EPOCH":"2025-11-21T14:09:42.423840","MEAN_MOTION":13.13468575,"ECCENTRICITY":0.000168,"INCLINATION":87.9003,"RA_OF_ASC_NODE":1.4774,"ARG_OF_PERICENTER":90.4375,"MEAN_ANOMALY":269.6947,"EPHEMERIS_TYPE":0,"CLASSIFICATION_TYPE":"U","NORAD_CAT_ID":48074,"ELEMENT_SET_NO":999,"REV_AT_EPOCH":22642,"BSTAR":-0.00077117,"MEAN_MOTION_DOT":-2.69e-6,"MEAN_MOTION_DDOT":0},{"OBJECT_NAME":"ONEWEB-0178","OBJECT_ID":"2021-025AK","EPOCH":"2025-11-21T03:38:33.250272","MEAN_MOTION":13.1347045,"ECCENTRICITY":0.0002083,"INCLINATION":87.8994,"RA_OF_ASC_NODE":1.6083,"ARG_OF_PERICENTER":89.8018,"MEAN_ANOMALY":270.335,"EPHEMERIS_TYPE":0,"CLASSIFICATION_TYPE":"U","NORAD_CAT_ID":48075,"ELEMENT_SET_NO":999,"REV_AT_EPOCH":22641,"BSTAR":-6.4874e-5,"MEAN_MOTION_DOT":-1.1e-7,"MEAN_MOTION_DDOT":0},{"OBJECT_NAME":"ONEWEB-0108","OBJECT_ID":"2021-025AL","EPOCH":"2025-11-21T13:38:01.967712","MEAN_MOTION":13.13467908,"ECCENTRICITY":0.0001707,"INCLINATION":87.9006,"RA_OF_ASC_NODE":1.4721,"ARG_OF_PERICENTER":102.5681,"MEAN_ANOMALY":257.564,"EPHEMERIS_TYPE":0,"CLASSIFICATION_TYPE":"U","NORAD_CAT_ID":48076,"ELEMENT_SET_NO":999,"REV_AT_EPOCH":22639,"BSTAR":0.00045558,"MEAN_MOTION_DOT":1.79e-6,"MEAN_MOTION_DDOT":0},{"OBJECT_NAME":"ONEWEB-0169","OBJECT_ID":"2021-025AM","EPOCH":"2025-11-21T12:34:38.733024","MEAN_MOTION":13.13472032,"ECCENTRICITY":0.0001704,"INCLINATION":87.8999,"RA_OF_ASC_NODE":1.5025,"ARG_OF_PERICENTER":103.2136,"MEAN_ANOMALY":256.9183,"EPHEMERIS_TYPE":0,"CLASSIFICATION_TYPE":"U","NORAD_CAT_ID":48077,"ELEMENT_SET_NO":999,"REV_AT_EPOCH":22504,"BSTAR":-0.00078629,"MEAN_MOTION_DOT":-2.74e-6,"MEAN_MOTION_DDOT":0},{"OBJECT_NAME":"ONEWEB-0176","OBJECT_ID":"2021-031A","EPOCH":"2025-11-21T10:53:08.297664","MEAN_MOTION":13.14503011,"ECCENTRICITY":0.0001944,"INCLINATION":87.8984,"RA_OF_ASC_NODE":331.0876,"ARG_OF_PERICENTER":88.2958,"MEAN_ANOMALY":271.8395,"EPHEMERIS_TYPE":0,"CLASSIFICATION_TYPE":"U","NORAD_CAT_ID":48210,"ELEMENT_SET_NO":999,"REV_AT_EPOCH":22102,"BSTAR":0.00015116,"MEAN_MOTION_DOT":6.9e-7,"MEAN_MOTION_DDOT":0},{"OBJECT_NAME":"ONEWEB-0184","OBJECT_ID":"2021-031B","EPOCH":"2025-11-21T13:53:31.907328","MEAN_MOTION":13.145021,"ECCENTRICITY":0.0002643,"INCLINATION":87.8997,"RA_OF_ASC_NODE":331.041,"ARG_OF_PERICENTER":83.6991,"MEAN_ANOMALY":276.4439,"EPHEMERIS_TYPE":0,"CLASSIFICATION_TYPE":"U","NORAD_CAT_ID":48211,"ELEMENT_SET_NO":999,"REV_AT_EPOCH":22101,"BSTAR":-0.00037178,"MEAN_MOTION_DOT":-1.25e-6,"MEAN_MOTION_DDOT":0},{"OBJECT_NAME":"ONEWEB-0179","OBJECT_ID":"2021-031C","EPOCH":"2025-11-21T13:11:15.034848","MEAN_MOTION":13.14504515,"ECCENTRICITY":0.0001732,"INCLINATION":87.8983,"RA_OF_ASC_NODE":331.056,"ARG_OF_PERICENTER":88.8064,"MEAN_ANOMALY":271.3264,"EPHEMERIS_TYPE":0,"CLASSIFICATION_TYPE":"U","NORAD_CAT_ID":48212,"ELEMENT_SET_NO":999,"REV_AT_EPOCH":22105,"BSTAR":0.00071675,"MEAN_MOTION_DOT":2.79e-6,"MEAN_MOTION_DDOT":0},{"OBJECT_NAME":"ONEWEB-0180","OBJECT_ID":"2021-031D","EPOCH":"2025-11-21T12:08:29.982048","MEAN_MOTION":13.14498031,"ECCENTRICITY":0.0002761,"INCLINATION":87.8994,"RA_OF_ASC_NODE":331.0619,"ARG_OF_PERICENTER":63.1163,"MEAN_ANOMALY":297.0249,"EPHEMERIS_TYPE":0,"CLASSIFICATION_TYPE":"U","NORAD_CAT_ID":48213,"ELEMENT_SET_NO":999,"REV_AT_EPOCH":22093,"BSTAR":0.00086633,"MEAN_MOTION_DOT":3.34e-6,"MEAN_MOTION_DDOT":0},{"OBJECT_NAME":"ONEWEB-0218","OBJECT_ID":"2021-031E","EPOCH":"2025-11-21T10:50:50.405856","MEAN_MOTION":13.1450197,"ECCENTRICITY":0.0002599,"INCLINATION":87.8996,"RA_OF_ASC_NODE":331.0729,"ARG_OF_PERICENTER":77.4197,"MEAN_ANOMALY":282.7223,"EPHEMERIS_TYPE":0,"CLASSIFICATION_TYPE":"U","NORAD_CAT_ID":48214,"ELEMENT_SET_NO":999,"REV_AT_EPOCH":22108,"BSTAR":-3.1663e-5,"MEAN_MOTION_DOT":1.0e-8,"MEAN_MOTION_DDOT":0},{"OBJECT_NAME":"ONEWEB-0209","OBJECT_ID":"2021-031F","EPOCH":"2025-11-21T10:34:50.757600","MEAN_MOTION":13.14501903,"ECCENTRICITY":0.0001687,"INCLINATION":87.8981,"RA_OF_ASC_NODE":331.1138,"ARG_OF_PERICENTER":84.7472,"MEAN_ANOMALY":275.385,"EPHEMERIS_TYPE":0,"CLASSIFICATION_TYPE":"U","NORAD_CAT_ID":48215,"ELEMENT_SET_NO":999,"REV_AT_EPOCH":22108,"BSTAR":-0.00039516,"MEAN_MOTION_DOT":-1.34e-6,"MEAN_MOTION_DDOT":0},{"OBJECT_NAME":"ONEWEB-0198","OBJECT_ID":"2021-031G","EPOCH":"2025-11-21T13:51:26.472672","MEAN_MOTION":13.14502851,"ECCENTRICITY":0.0001972,"INCLINATION":87.8985,"RA_OF_ASC_NODE":331.0835,"ARG_OF_PERICENTER":77.6067,"MEAN_ANOMALY":282.5283,"EPHEMERIS_TYPE":0,"CLASSIFICATION_TYPE":"U","NORAD_CAT_ID":48216,"ELEMENT_SET_NO":999,"REV_AT_EPOCH":22121,"BSTAR":-0.00043668,"MEAN_MOTION_DOT":-1.49e-6,"MEAN_MOTION_DDOT":0},{"OBJECT_NAME":"ONEWEB-0189","OBJECT_ID":"2021-031H","EPOCH":"2025-11-21T14:09:30.547296","MEAN_MOTION":13.14502852,"ECCENTRICITY":0.0001983,"INCLINATION":87.8984,"RA_OF_ASC_NODE":331.0546,"ARG_OF_PERICENTER":79.9769,"MEAN_ANOMALY":280.1584,"EPHEMERIS_TYPE":0,"CLASSIFICATION_TYPE":"U","NORAD_CAT_ID":48217,"ELEMENT_SET_NO":999,"REV_AT_EPOCH":22095,"BSTAR":-0.00050834,"MEAN_MOTION_DOT":-1.76e-6,"MEAN_MOTION_DDOT":0},{"OBJECT_NAME":"ONEWEB-0196","OBJECT_ID":"2021-031J","EPOCH":"2025-11-21T13:37:32.176128","MEAN_MOTION":13.14502174,"ECCENTRICITY":0.0001798,"INCLINATION":87.8981,"RA_OF_ASC_NODE":331.0738,"ARG_OF_PERICENTER":85.1127,"MEAN_ANOMALY":275.0208,"EPHEMERIS_TYPE":0,"CLASSIFICATION_TYPE":"U","NORAD_CAT_ID":48218,"ELEMENT_SET_NO":999,"REV_AT_EPOCH":22095,"BSTAR":0.00013291,"MEAN_MOTION_DOT":6.2e-7,"MEAN_MOTION_DDOT":0}]
