ONEWEB-0171             
1 48070U 21025AE  25325.58668366 -.00000255  00000+0 -73451-3 0  9990
2 48070  87.8986   1.5059 0001925  93.9565 266.1784 13.13468414226369
ONEWEB-0172             
1 48071U 21025AF  25325.56638507  .00000251  00000+0  65203-3 0  9993
2 48071  87.9008   1.4889 0001919  91.9144 268.2205 13.13469606227254
ONEWEB-0174             
1 48072U 21025AG  25325.54776214  .00000301  00000+0  78799-3 0  9990
2 48072  87.8995   1.4989 0001699  94.2968 265.8355 13.13469451226576
ONEWEB-0175             
1 48073U 21025AH  25325.57823046 -.00000068  00000+0 -22190-3 0  9996
2 48073  87.9005   1.4607 0002163  94.0002 266.1374 13.13469082226239
ONEWEB-0177             
1 48074U 21025AJ  25325.59007435 -.00000269  00000+0 -77117-3 0  9997
2 48074  87.9003   1.4774 0001680  90.4375 269.6947 13.13468575226420
ONEWEB-0178             
1 48075U 21025AK  25325.15177373 -.00000011  00000+0 -64874-4 0  9991
2 48075  87.8994   1.6083 0002083  89.8018 270.3350 13.13470450226419
ONEWEB-0108             
1 48076U 21025AL  25325.56807833  .00000179  00000+0  45558-3 0  9998
2 48076  87.9006   1.4721 0001707 102.5681 257.5640 13.13467908226393
ONEWEB-0169             
1 48077U 21025AM  25325.52405941 -.00000274  00000+0 -78629-3 0  9992
2 48077  87.8999   1.5025 0001704 103.2136 256.9183 13.13472032225042
ONEWEB-0176             
1 48210U 21031A   25325.45356826  .00000069  00000+0  15116-3 0  9999
2 48210  87.8984 331.0876 0001944  88.2958 271.8395 13.14503011221028
ONEWEB-0184             
1 48211U 21031B   25325.57884152 -.00000125  00000+0 -37178-3 0  9998
2 48211  87.8997 331.0410 0002643  83.6991 276.4439 13.14502100221017
ONEWEB-0179             
1 48212U 21031C   25325.54947957  .00000279  00000+0  71675-3 0  9997
2 48212  87.8983 331.0560 0001732  88.8064 271.3264 13.14504515221051
ONEWEB-0180             
1 48213U 21031D   25325.50590257  .00000334  00000+0  86633-3 0  9993
2 48213  87.8994 331.0619 0002761  63.1163 297.0249 13.14498031220937
ONEWEB-0218             
1 48214U 21031E   25325.45197229  .00000001  00000+0 -31663-4 0  9996
2 48214  87.8996 331.0729 0002599  77.4197 282.7223 13.14501970221083
ONEWEB-0209             
1 48215U 21031F   25325.44086525 -.00000134  00000+0 -39516-3 0  9994
2 48215  87.8981 331.1138 0001687  84.7472 275.3850 13.14501903221087
ONEWEB-0198             
1 48216U 21031G   25325.57738973 -.00000149  00000+0 -43668-3 0  9999
2 48216  87.8985 331.0835 0001972  77.6067 282.5283 13.14502851221211
ONEWEB-0189             
1 48217U 21031H   25325.58993689 -.00000176  00000+0 -50834-3 0  9991
2 48217  87.8984 331.0546 0001983  79.9769 280.1584 13.14502852220955
ONEWEB-0196             
1 48218U 21031J   25325.56773352  .00000062  00000+0  13291-3 0  9991
2 48218  87.8981 331.0738 0001798  85.1127 275.0208 13.14502174220950
